NORAD_CAT_ID,OBJECT_NAME,OBJECT_TYPE,EPOCH,MEAN_MOTION,ECCENTRICITY,INCLINATION,RA_OF_ASC_NODE,ARG_OF_PERICENTER,MEAN_ANOMALY,BSTAR,MEAN_MOTION_DOT,MEAN_MOTION_DDOT,TLE_LINE0,TLE_LINE1,TLE_LINE2,SEMIMAJOR_AXIS,PERIOD,APOGEE,PERIGEE,DECAYED
52451.0,STARLINK-3870,PAYLOAD,2023-01-22 09:38:44,15.08826597,0.0001841999999999,53.2185,157.0529,22.2319,337.8753,-0.00010137,-1.9e-05,0.0,0 STARLINK-3870,1 52451U 22049A   23022.40190152 -.00001900  00000-0 -10137-3 0  9992,2 52451  53.2185 157.0529 0001842  22.2319 337.8753 15.08826597 39825,6917.920999999999,95.438,541.061,538.512,0.0
52451.0,STARLINK-3870,PAYLOAD,2023-01-22 17:35:39,15.08838033,0.0001939,53.2182,155.5639,66.3492,293.7703,-2.0214e-05,-6.1e-06,0.0,0 STARLINK-3870,1 52451U 22049A   23022.73309262 -.00000610  00000-0 -20214-4 0  9997,2 52451  53.2182 155.5639 0001939  66.3492 293.7703 15.08838033 39873,6917.886,95.438,541.0930000000001,538.41,0.0
52451.0,STARLINK-3870,PAYLOAD,2023-01-23 11:04:53,15.08861311,0.0001688,53.2175,152.2934,77.7269,282.3912,-0.0002961,-5e-05,0.0,0 STARLINK-3870,1 52451U 22049A   23023.46172896 -.00005000  00000-0 -29610-3 0  9995,2 52451  53.2175 152.2934 0001688  77.7269 282.3912 15.08861311 39989,6917.815,95.436,540.8480000000001,538.513,0.0
52451.0,STARLINK-3870,PAYLOAD,2023-01-23 17:26:24,15.08872174,9.36e-05,53.2178,151.1073,94.9548,265.1551,-0.00019019,-3.316e-05,0.0,0 STARLINK-3870,1 52451U 22049A   23023.72667077 -.00003316  00000-0 -19019-3 0  9994,2 52451  53.2178 151.1073 0000936  94.9548 265.1551 15.08872174 40024,6917.781999999999,95.436,540.295,539.0,0.0
52451.0,STARLINK-3870,PAYLOAD,2023-01-24 12:31:04,15.08833956,0.0001309,53.2175,147.5344,84.9276,275.1865,0.00012005,1.623e-05,0.0,0 STARLINK-3870,1 52451U 22049A   23024.52157662  .00001623  00000-0  12005-3 0  9992,2 52451  53.2175 147.5344 0001309  84.9276 275.1865 15.08833956 40140,6917.899,95.438,540.669,538.8580000000001,0.0
52451.0,STARLINK-3870,PAYLOAD,2023-01-24 15:41:50,15.08841017,0.0001483,53.2176,146.9401,74.7109,285.4047,0.00018762,2.699e-05,0.0,0 STARLINK-3870,1 52451U 22049A   23024.65405257  .00002699  00000-0  18762-3 0  9992,2 52451  53.2176 146.9401 0001483  74.7109 285.4047 15.08841017 40168,6917.877,95.437,540.768,538.716,0.0
52451.0,STARLINK-3870,PAYLOAD,2023-01-25 13:57:14,15.08843975,0.0001223,53.2176,142.7764,104.6959,255.4169,3.8161e-05,3.2e-06,0.0,0 STARLINK-3870,1 52451U 22049A   23025.58141491  .00000320  00000-0  38161-4 0  9997,2 52451  53.2176 142.7764 0001223 104.6959 255.4169 15.08843975 40305,6917.868,95.437,540.5790000000001,538.887,0.0
52451.0,STARLINK-3870,PAYLOAD,2023-01-26 02:40:19,15.088351,0.0001185,53.2169,140.3978,99.1891,260.9235,0.00011517,1.545e-05,0.0,0 STARLINK-3870,1 52451U 22049A   23026.11134067  .00001545  00000-0  11517-3 0  9993,2 52451  53.2169 140.3978 0001185  99.1891 260.9235 15.08835100 40382,6917.895,95.438,540.58,538.941,0.0
52451.0,STARLINK-3870,PAYLOAD,2023-01-26 13:48:01,15.08845686,0.0001405,53.2166,138.3177,80.2649,279.8501,0.0001483,2.073e-05,0.0,0 STARLINK-3870,1 52451U 22049A   23026.57501669  .00002073  00000-0  14830-3 0  9997,2 52451  53.2166 138.3177 0001405  80.2649 279.8501 15.08845686 40299,6917.863,95.437,540.7,538.756,0.0
52451.0,STARLINK-3870,PAYLOAD,2023-01-27 13:38:48,15.08848979,0.0001371,53.2172,133.855,114.7906,245.3229,7.8277e-05,9.58e-06,0.0,0 STARLINK-3870,1 52451U 22049A   23027.56861284  .00000958  00000-0  78277-4 0  9995,2 52451  53.2172 133.8550 0001371 114.7906 245.3229 15.08848979 40442,6917.853,95.437,540.6659999999999,538.77,0.0
52451.0,STARLINK-3870,PAYLOAD,2023-01-28 13:29:35,15.08842696,0.0001309,53.217,129.3962,94.2199,265.8943,7.3504e-05,8.82e-06,0.0,0 STARLINK-3870,1 52451U 22049A   23028.56221690  .00000882  00000-0  73504-4 0  9991,2 52451  53.2170 129.3962 0001309  94.2199 265.8943 15.08842696 40758,6917.872,95.437,540.643,538.832,0.0
52451.0,STARLINK-3870,PAYLOAD,2023-01-28 18:15:44,15.08850324,0.000124,53.2174,128.5038,96.2063,263.907,9.8562e-05,1.282e-05,0.0,0 STARLINK-3870,1 52451U 22049A   23028.76093051  .00001282  00000-0  98562-4 0  9997,2 52451  53.2174 128.5038 0001240  96.2063 263.9070 15.08850324 40783,6917.849,95.437,540.572,538.856,0.0
52451.0,STARLINK-3870,PAYLOAD,2023-01-29 06:58:51,15.08823934,7.56e-05,53.2176,126.127,109.9336,250.1738,-1.412e-05,-5.12e-06,0.0,0 STARLINK-3870,1 52451U 22049A   23029.29087021 -.00000512  00000-0 -14120-4 0  9991,2 52451  53.2176 126.1270 0000756 109.9336 250.1738 15.08823934 40868,6917.929,95.439,540.317,539.272,0.0
52451.0,STARLINK-3870,PAYLOAD,2023-01-29 13:20:22,15.08836791,0.0001273,53.2175,124.9369,99.559,260.5546,9.8244e-05,1.276e-05,0.0,0 STARLINK-3870,1 52451U 22049A   23029.55582160  .00001276  00000-0  98244-4 0  9999,2 52451  53.2175 124.9369 0001273  99.5590 260.5546 15.08836791 40905,6917.89,95.438,540.636,538.875,0.0
52451.0,STARLINK-3870,PAYLOAD,2023-01-29 18:06:31,15.08847917,0.0001128,53.2164,124.044,99.7269,260.385,0.00015433,2.17e-05,0.0,0 STARLINK-3870,1 52451U 22049A   23029.75453444  .00002170  00000-0  15433-3 0  9995,2 52451  53.2164 124.0440 0001128  99.7269 260.3850 15.08847917 40939,6917.856,95.437,540.502,538.941,0.0
52451.0,STARLINK-3870,PAYLOAD,2023-01-30 11:35:46,15.08839754,0.000112,53.2167,120.7729,102.7341,257.3777,7.9828e-05,9.83e-06,0.0,0 STARLINK-3870,1 52451U 22049A   23030.48318074  .00000983  00000-0  79828-4 0  9995,2 52451  53.2167 120.7729 0001120 102.7341 257.3777 15.08839754 40881,6917.881,95.438,540.521,538.971,0.0
52451.0,STARLINK-3870,PAYLOAD,2023-01-30 14:46:33,15.0884353,0.0001195,53.2167,120.1786,92.7252,267.3877,0.00017208,2.452e-05,0.0,0 STARLINK-3870,1 52451U 22049A   23030.61565993  .00002452  00000-0  17208-3 0  9990,2 52451  53.2167 120.1786 0001195  92.7252 267.3877 15.08843530 41069,6917.87,95.437,540.561,538.908,0.0
52451.0,STARLINK-3870,PAYLOAD,2023-01-31 00:33:30,15.08841883,0.0001467,53.221,118.3463,137.9979,277.4043,0.00017208,2.452e-05,0.0,0 STARLINK-3870,1 52451U 22049A   23031.02327258  .00002452  00000-0  17208-3 0  9996,2 52451  53.2210 118.3463 0001467 137.9979 277.4043 15.08841883 41122,6917.875,95.437,540.754,538.725,0.0
52451.0,STARLINK-3870,PAYLOAD,2023-01-31 05:05:01,15.08836431,0.0001049,53.2166,117.5025,96.2774,263.8338,0.00013867,1.92e-05,0.0,0 STARLINK-3870,1 52451U 22049A   23031.21182455  .00001920  00000-0  13867-3 0  9991,2 52451  53.2166 117.5025 0001049  96.2774 263.8338 15.08836431 41155,6917.891,95.438,540.482,539.031,0.0
52451.0,STARLINK-3870,PAYLOAD,2023-01-31 11:26:34,15.08842625,0.0001005,53.2164,116.3132,92.9455,267.1652,0.00030413,4.556e-05,0.0,0 STARLINK-3870,1 52451U 22049A   23031.47678272  .00004556  00000-0  30413-3 0  9990,2 52451  53.2164 116.3132 0001005  92.9455 267.1652 15.08842625 41035,6917.872,95.437,540.433,539.042,0.0
52451.0,STARLINK-3870,PAYLOAD,2023-01-31 14:37:20,15.08847728,0.0001004,53.2163,115.7182,89.1582,270.9525,0.00046424,7.11e-05,0.0,0 STARLINK-3870,1 52451U 22049A   23031.60926153  .00007110  00000-0  46424-3 0  9997,2 52451  53.2163 115.7182 0001004  89.1582 270.9525 15.08847728 41210,6917.857,95.437,540.416,539.027,0.0
52451.0,STARLINK-3870,PAYLOAD,2023-01-31 20:58:52,15.0884729,0.0001101,53.216,114.5267,111.8615,248.2494,0.0004752,7.285e-05,0.0,0 STARLINK-3870,1 52451U 22049A   23031.87422079  .00007285  00000-0  47520-3 0  9995,2 52451  53.2160 114.5267 0001101 111.8615 248.2494 15.08847290 41099,6917.858,95.437,540.485,538.961,0.0
52451.0,STARLINK-3870,PAYLOAD,2023-02-01 04:55:48,15.0884672,0.0001062,53.2164,113.0425,84.4517,275.6597,0.00025113,3.712e-05,0.0,0 STARLINK-3870,1 52451U 22049A   23032.20542108  .00003712  00000-0  25113-3 0  9994,2 52451  53.2164 113.0425 0001062  84.4517 275.6597 15.08846720 41304,6917.86,95.437,540.46,538.99,0.0
52451.0,STARLINK-3870,PAYLOAD,2023-02-01 12:52:43,15.08854952,0.0001044,53.2166,111.5555,86.0802,274.031,0.00033168,4.997e-05,0.0,0 STARLINK-3870,1 52451U 22049A   23032.53661626  .00004997  00000-0  33168-3 0  9992,2 52451  53.2166 111.5555 0001044  86.0802 274.0310 15.08854952 41197,6917.835,95.437,540.422,538.977,0.0
52451.0,STARLINK-3870,PAYLOAD,2023-02-02 00:00:25,15.08845177,0.0001292,53.2167,109.4762,83.9504,276.1635,0.00013067,1.793e-05,0.0,0 STARLINK-3870,1 52451U 22049A   23033.00029944  .00001793  00000-0  13067-3 0  9993,2 52451  53.2167 109.4762 0001292  83.9504 276.1635 15.08845177 41422,6917.865,95.437,540.623,538.836,0.0
52451.0,STARLINK-3870,PAYLOAD,2023-02-02 11:08:08,15.08838335,0.0001205,53.2171,107.3942,84.7356,275.3773,6.4475e-05,7.38e-06,0.0,0 STARLINK-3870,1 52451U 22049A   23033.46398341  .00000738  00000-0  64475-4 0  9991,2 52451  53.2171 107.3942 0001205  84.7356 275.3773 15.08838335 41334,6917.885,95.438,540.584,538.917,0.0
52451.0,STARLINK-3870,PAYLOAD,2023-02-02 22:15:50,15.08837079,0.000121,53.2169,105.3127,90.118,269.9951,-1.9537e-05,-5.99e-06,0.0,0 STARLINK-3870,1 52451U 22049A   23033.92766447 -.00000599  00000-0 -19537-4 0  9994,2 52451  53.2169 105.3127 0001210  90.1180 269.9951 15.08837079 41562,6917.889,95.438,540.591,538.917,0.0
52451.0,STARLINK-3870,PAYLOAD,2023-02-03 14:09:41,15.08842839,0.0001145,53.2169,102.3373,92.5004,267.6119,8.3687e-05,1.044e-05,0.0,0 STARLINK-3870,1 52451U 22049A   23034.59006307  .00001044  00000-0  83687-4 0  9991,2 52451  53.2169 102.3373 0001145  92.5004 267.6119 15.08842839 41505,6917.872,95.437,540.529,538.945,0.0
52451.0,STARLINK-3870,PAYLOAD,2023-02-04 07:38:56,15.08842211,0.0001224,53.2167,99.0667,87.3448,272.7685,0.00022712,3.329e-05,0.0,0 STARLINK-3870,1 52451U 22049A   23035.31870564  .00003329  00000-0  22712-3 0  9995,2 52451  53.2167  99.0667 0001224  87.3448 272.7685 15.08842211 41771,6917.874,95.437,540.585,538.892,0.0
52451.0,STARLINK-3870,PAYLOAD,2023-02-04 10:49:42,15.08847886,0.0001298,53.2167,98.4718,96.1896,263.9244,0.0003139,4.712e-05,0.0,0 STARLINK-3870,1 52451U 22049A   23035.45118299  .00004712  00000-0  31390-3 0  9999,2 52451  53.2167  98.4718 0001298  96.1896 263.9244 15.08847886 41638,6917.856,95.437,540.619,538.823,0.0
